{
  "type": "FeatureCollection",
  "features": [
    {
      "type": "Feature",
      "properties": {
        "model": "meteoswiss_icon_ch1",
        "grid_shape": [
          705,
          1089
        ]
      },
      "geometry": {
        "type": "Polygon",
        "coordinates": [
          [
            [
              0.023336815554838068,
              49.56856919713534
            ],
            [
              0.2219637234888013,
              49.58487847646251
            ],
            [
              0.43601334849308016,
              49.60207893685147
            ],
            [
              0.6502090518456847,
              49.61890207188375
            ],
            [
              0.8645477758955892,
              49.63534739164072
            ],
            [
              1.063701966318656,
              49.65027932736275
            ],
            [
              1.2783078212001553,
              49.66599465771901
            ],
            [
              1.4930476495509135,
              49.681330797092784
            ],
            [
              1.707918331445763,
              49.69628729610316
            ],
            [
              1.9075555347952164,
              49.70983515686747
            ],
            [
              2.1226697110686352,
              49.724058262063956
            ],
            [
              2.3379055185276036,
              49.7379004713298
            ],
            [
              2.553259779972544,
              49.75136137677704
            ],
            [
              2.768729304452585,
              49.76444058122255
            ],
            [
              2.9689085553864496,
              49.77624344064968
            ],
            [
              3.184591312399848,
              49.78858542565068
            ],
            [
              3.400379911682122,
              49.800544608568515
            ],
            [
              3.616271111622118,
              49.81212063479821
            ],
            [
              3.8168305372512576,
              49.82252641984092
            ],
            [
              4.0329104114959495,
              49.83336254022058
            ],
            [
              4.249083325289376,
              49.84381452867713
            ],
            [
              4.4653459918804215,
              49.853882073953095
            ],
            [
              4.666238808527635,
              49.86288601279167
            ],
            [
              4.882665249261068,
              49.872211294205144
            ],
            [
              5.099171757803632,
              49.881151285173814
            ],
            [
              5.315755007982234,
              49.889705718468335
            ],
            [
              5.53241166452342,
              49.897874338164115
            ],
            [
              5.733655651440827,
              49.90511381041373
            ],
            [
              5.950444426751063,
              49.91253768027149
            ],
            [
              6.167296792131309,
              49.91957505240673
            ],
            [
              6.384209380301352,
              49.926225715645465
            ],
            [
              6.585679186678291,
              49.93205489446853
            ],
            [
              6.80269838344891,
              49.937959208067475
            ],
            [
              7.019767901837467,
              49.9434762604163
            ],
            [
              7.236884348631084,
              49.948605885559424
            ],
            [
              7.454044325000482,
              49.953347929114365
            ],
            [
              7.655728875863423,
              49.95740408656455
            ],
            [
              7.872963184969056,
              49.96139825826717
            ],
            [
              8.090231041438484,
              49.96500446303887
            ],
            [
              8.307529028290059,
              49.96822259216269
            ],
            [
              8.50932971950009,
              49.97086328380461
            ],
            [
              8.726676152431928,
              49.97333271746374
            ],
            [
              8.944042689573777,
              49.97541382425368
            ],
            [
              9.16142590208831,
              49.97710654136568
            ],
            [
              9.363293674710347,
              49.97833053797867
            ],
            [
              9.580699356844653,
              49.97927408380333
            ],
            [
              9.798111662746466,
              49.97982912341167
            ],
            [
              10.015527158073196,
              49.979995640043754
            ],
            [
              10.232942408098808,
              49.979773628671325
            ],
            [
              10.434824775527781,
              49.979219589784
            ],
            [
              10.652229853339803,
              49.97824830358921
            ],
            [
              10.869624628707724,
              49.97688854214999
            ],
            [
              11.087005669398303,
              49.97514034651741
            ],
            [
              11.288844196090604,
              49.97316926079657
            ],
            [
              11.506189062381381,
              49.970672101334415
            ],
            [
              11.723510153481477,
              49.967786695282804
            ],
            [
              11.940804046016106,
              49.964513129680356
            ],
            [
              12.158067319877619,
              49.960851503244605
            ],
            [
              12.359781385926055,
              49.95710404501824
            ],
            [
              12.576975965119832,
              49.95269433744597
            ],
            [
              12.794129932265598,
              49.94789692518251
            ],
            [
              13.011239884039874,
              49.94271195267258
            ],
            [
              13.212799600106337,
              49.93755044694291
            ],
            [
              13.42981507401704,
              49.93161848757319
            ],
            [
              13.646776597492758,
              49.92529945757385
            ],
            [
              13.863680790229548,
              49.91859354679495
            ],
            [
              14.065037543114276,
              49.9120203892487
            ],
            [
              14.281821649162815,
              49.904568929866706
            ],
            [
              14.498538565837709,
              49.89673121170789
            ],
            [
              14.715184941986296,
              49.88850746960622
            ],
            [
              14.931757434840488,
              49.879897949766985
            ],
            [
              15.132791393862837,
              49.8715581920329
            ],
            [
              15.34921199036292,
              49.862205409440705
            ],
            [
              15.56554896590726,
              49.85246763521565
            ],
            [
              15.781799014384935,
              49.84234515988088
            ],
            [
              15.982521914595818,
              49.83260151752827
            ],
            [
              16.1985950199059,
              49.821737980374095
            ],
            [
              16.4145715763917,
              49.81049065709786
            ],
            [
              16.63044832040246,
              49.79885988190327
            ],
            [
              16.846221999999994,
              49.786846000000004
            ],
            [
              16.846221999999994,
              49.786846000000004
            ],
            [
              16.834075165818653,
              49.697189074120615
            ],
            [
              16.82197307066769,
              49.6075308826107
            ],
            [
              16.80991540950956,
              49.51787143411718
            ],
            [
              16.797901879963852,
              49.428210737211444
            ],
            [
              16.785932182278017,
              49.33854880039026
            ],
            [
              16.7740060192985,
              49.24888563207643
            ],
            [
              16.762123096442508,
              49.15922124061977
            ],
            [
              16.75028312166968,
              49.069555634297814
            ],
            [
              16.7384858054547,
              48.979888821316585
            ],
            [
              16.726730860759748,
              48.89022080981147
            ],
            [
              16.715018003007632,
              48.80055160784785
            ],
            [
              16.704641678000378,
              48.720844657615466
            ],
            [
              16.693007549955702,
              48.63117322876971
            ],
            [
              16.681414700321476,
              48.541500632379744
            ],
            [
              16.669862853839543,
              48.45182687624616
            ],
            [
              16.658351737585235,
              48.36215196810329
            ],
            [
              16.646881080942613,
              48.27247591561987
            ],
            [
              16.635450615579675,
              48.182798726399724
            ],
            [
              16.624060075423934,
              48.093120407982475
            ],
            [
              16.61270919663854,
              48.00344096784426
            ],
            [
              16.60139771759834,
              47.9137604133984
            ],
            [
              16.590125378866524,
              47.824078751995984
            ],
            [
              16.58013817271651,
              47.74436079623585
            ],
            [
              16.568939065472065,
              47.65467706375527
            ],
            [
              16.557778361133696,
              47.564992245211556
            ],
            [
              16.546655808557247,
              47.47530634772026
            ],
            [
              16.535571158676458,
              47.38561937833793
            ],
            [
              16.524524164481154,
              47.295931344062716
            ],
            [
              16.513514580995786,
              47.20624225183501
            ],
            [
              16.502542165258024,
              47.11655210853795
            ],
            [
              16.49160667629809,
              47.02686092099817
            ],
            [
              16.48070787511778,
              46.93716869598628
            ],
            [
              16.46984552467009,
              46.84747544021746
            ],
            [
              16.460220512551142,
              46.76774724181503
            ],
            [
              16.44942637354359,
              46.67805205718912
            ],
            [
              16.438668011243102,
              46.5883558608997
            ],
            [
              16.427945196001033,
              46.498658659451905
            ],
            [
              16.417257700023562,
              46.40896045929814
            ],
            [
              16.40660529735261,
              46.31926126683879
            ],
            [
              16.39598776384716,
              46.22956108842255
            ],
            [
              16.385404877164532,
              46.13985993034709
            ],
            [
              16.37485641674222,
              46.05015779885953
            ],
            [
              16.36434216377973,
              45.960454700157
            ],
            [
              16.3538619012206,
              45.87075064038708
            ],
            [
              16.343415413734842,
              45.78104562564837
            ],
            [
              16.334157828731257,
              45.70130703795934
            ],
            [
              16.323774557131724,
              45.611600235858816
            ],
            [
              16.31342444808001,
              45.52189249613683
            ],
            [
              16.30310729279591,
              45.432183824706065
            ],
            [
              16.29282288414221,
              45.34247422743249
            ],
            [
              16.282571016608316,
              45.25276371013601
            ],
            [
              16.272351486293875,
              45.16305227859073
            ],
            [
              16.262164090892735,
              45.073339938525564
            ],
            [
              16.252008629677114,
              44.98362669562462
            ],
            [
              16.241884903481875,
              44.89391255552763
            ],
            [
              16.231792714688925,
              44.804197523830446
            ],
            [
              16.222848197497356,
              44.72445008497422
            ],
            [
              16.21281504557887,
              44.63473338425761
            ],
            [
              16.2028128687172,
              44.545015807863905
            ],
            [
              16.192841475166826,
              44.455297361222286
            ],
            [
              16.182900674656057,
              44.36557804972013
            ],
            [
              16.17299027837263,
              44.2758578787034
            ],
            [
              16.163110098949392,
              44.18613685347703
            ],
            [
              16.153259950450142,
              44.09641497930535
            ],
            [
              16.14343964835564,
              44.00669226141253
            ],
            [
              16.133649009549874,
              43.91696870498289
            ],
            [
              16.123887852306357,
              43.827244315161316
            ],
            [
              16.11523587221499,
              43.74748860647743
            ],
            [
              16.10552991140145,
              43.65776265637066
            ],
            [
              16.095852914845004,
              43.56803588751704
            ],
            [
              16.086204706096083,
              43.47830830491175
            ],
            [
              16.07658511003004,
              43.38857991351243
            ],
            [
              16.066993952834604,
              43.298850718239436
            ],
            [
              16.057431061997065,
              43.20912072397624
            ],
            [
              16.047896266291986,
              43.11938993556988
            ],
            [
              16.038389395768746,
              43.02965835783115
            ],
            [
              16.02891028173945,
              42.93992599553508
            ],
            [
              16.01945875676687,
              42.85019285342118
            ],
            [
              16.011080428034358,
              42.770429409573055
            ],
            [
              16.011080428034358,
              42.770429409573055
            ],
            [
              15.821372422666698,
              42.780983116181545
            ],
            [
              15.631598318823817,
              42.79119949828228
            ],
            [
              15.441760220684255,
              42.80107832813673
            ],
            [
              15.251860238135501,
              42.81061938534636
            ],
            [
              15.075470977226042,
              42.81917630775912
            ],
            [
              14.885457624737315,
              42.82806535114506
            ],
            [
              14.695388597916606,
              42.8366160188741
            ],
            [
              14.505266027312132,
              42.844828119602276
            ],
            [
              14.328677563196017,
              42.852150325192454
            ],
            [
              14.138457763808976,
              42.85970896248366
            ],
            [
              13.948190687043033,
              42.86692851532479
            ],
            [
              13.757878481239974,
              42.87380882174073
            ],
            [
              13.567523298805808,
              42.88034972727668
            ],
            [
              13.390728318212673,
              42.88611939441852
            ],
            [
              13.200296344787184,
              42.89200533282237
            ],
            [
              13.009827719780626,
              42.89755146142769
            ],
            [
              12.81932460971339,
              42.902757655476194
            ],
            [
              12.64239988285633,
              42.90728749581347
            ],
            [
              12.451836395457953,
              42.91183777756754
            ],
            [
              12.2612447850236,
              42.916047803132464
            ],
            [
              12.070627229201456,
              42.919917477653335
            ],
            [
              11.89360388684767,
              42.923205917394114
            ],
            [
              11.702942451651221,
              42.92641896100456
            ],
            [
              11.512261461262112,
              42.9292914197587
            ],
            [
              11.321563101432346,
              42.93182322886262
            ],
            [
              11.130849559490375,
              42.9340143311935
            ],
            [
              10.953746732319594,
              42.93574381124948
            ],
            [
              10.76301009248787,
              42.93727770331441
            ],
            [
              10.572264683487028,
              42.938470765501044
            ],
            [
              10.3815126969184,
              42.939322970874954
            ],
            [
              10.204381878809697,
              42.93980908152545
            ],
            [
              10.013623398008672,
              42.94000387257977
            ],
            [
              9.822864760602657,
              42.93985777220621
            ],
            [
              9.632108159395203,
              42.93937078370367
            ],
            [
              9.441355787004706,
              42.93854291806796
            ],
            [
              9.264234286803829,
              42.93746897774214
            ],
            [
              9.073496260306342,
              42.93598376571607
            ],
            [
              8.882768880918395,
              42.93415775302042
            ],
            [
              8.692054338603427,
              42.93199098086936
            ],
            [
              8.514975671241036,
              42.92967390198015
            ],
            [
              8.324292066069093,
              42.926850095674915
            ],
            [
              8.13362770399473,
              42.923685694789285
            ],
            [
              7.94298476926138,
              42.920180770687075
            ],
            [
              7.765980280782072,
              42.91662135999072
            ],
            [
              7.575384831108865,
              42.912459942382675
            ],
            [
              7.384817193581624,
              42.90795825456977
            ],
            [
              7.1942795436771565,
              42.90311639794665
            ],
            [
              7.003774054158062,
              42.89793448152722
            ],
            [
              6.826906792968629,
              42.892818311496214
            ],
            [
              6.636469451961148,
              42.88698090144514
            ],
            [
              6.446070616974926,
              42.880803794568514
            ],
            [
              6.255712448227642,
              42.8742871296919
            ],
            [
              6.078989589491308,
              42.867932025703546
            ],
            [
              5.888715935169814,
              42.860760918930865
            ],
            [
              5.698489251627733,
              42.8532507041129
            ],
            [
              5.508311683572218,
              42.845401549657126
            ],
            [
              5.318185371294594,
              42.83721363145852
            ],
            [
              5.141687271591142,
              42.829307392898876
            ],
            [
              4.951665836697061,
              42.82046666895164
            ],
            [
              4.761701898404606,
              42.81128773927375
            ],
            [
              4.571797577848291,
              42.80177080898627
            ],
            [
              4.395513083310354,
              42.79263119656495
            ],
            [
              4.205729709983135,
              42.78246301451682
            ],
            [
              4.016012134939954,
              42.77195747498379
            ],
            [
              3.8263624573222708,
              42.76111481197688
            ],
            [
              3.650321810809033,
              42.75074497259752
            ],
            [
              3.4608089836607085,
              42.73925283068756
            ],
            [
              3.2713701660071663,
              42.727424292489864
            ],
            [
              3.082007432233039,
              42.715259620524
            ],
            [
              2.892722849989446,
              42.702759084500094
            ],
            [
              2.7170303739516513,
              42.690850950386846
            ],
            [
              2.527902325835354,
              42.67770346465446
            ],
            [
              2.3388584441547113,
              42.66422094582326
            ],
            [
              2.149900768451252,
              42.650403691571846
            ],
            [
              1.9745190353643185,
              42.637273925470474
            ],
            [
              1.7857333455360087,
              42.622811976714075
            ],
            [
              1.5970397904762559,
              42.6080162047174
            ],
            [
              1.4084403790461952,
              42.59288693464984
            ],
            [
              1.2333984000000178,
              42.578540000000004
            ],
            [
              1.2333984000000178,
              42.578540000000004
            ],
            [
              1.221242400249144,
              42.6580382117403
            ],
            [
              1.2075296919922656,
              42.747472159437656
            ],
            [
              1.193777358356328,
              42.83690446653337
            ],
            [
              1.179985160767263,
              42.926335123119436
            ],
            [
              1.1661528588892294,
              43.015764119214374
            ],
            [
              1.1522802106091428,
              43.10519144476251
            ],
            [
              1.1383669720183565,
              43.19461708963332
            ],
            [
              1.124412897396579,
              43.28404104362064
            ],
            [
              1.1104177391940644,
              43.37346329644203
            ],
            [
              1.0963812480141053,
              43.46288383773792
            ],
            [
              1.082303172595325,
              43.55230265707098
            ],
            [
              1.0697542129512947,
              43.63178459793587
            ],
            [
              1.0555968973134815,
              43.721200135916824
            ],
            [
              1.0413972609321347,
              43.81061392133863
            ],
            [
              1.02715504512231,
              43.900025943454146
            ],
            [
              1.0128699892450312,
              43.98943619143465
            ],
            [
              0.9985418306882601,
              44.07884465436906
            ],
            [
              0.9841703048475561,
              44.168251321263114
            ],
            [
              0.9697551451069438,
              44.257656181038634
            ],
            [
              0.9552960828188619,
              44.34705922253254
            ],
            [
              0.9407928472849274,
              44.43646043449622
            ],
            [
              0.9262451657353765,
              44.525859805594514
            ],
            [
              0.913276358388282,
              44.605324358587495
            ],
            [
              0.8986439716167066,
              44.69472022125936
            ],
            [
              0.8839663390069308,
              44.78411420982632
            ],
            [
              0.8692431795392899,
              44.8735063126087
            ],
            [
              0.8544742100215716,
              44.96289651783617
            ],
            [
              0.839659145067337,
              45.052284813646715
            ],
            [
              0.824797697074242,
              45.141671188085795
            ],
            [
              0.8098895762020534,
              45.23105562910537
            ],
            [
              0.7949344903502576,
              45.320438124562955
            ],
            [
              0.7799321451355681,
              45.409818662220786
            ],
            [
              0.764882243869432,
              45.49919722974471
            ],
            [
              0.7514643885795017,
              45.578643181334456
            ],
            [
              0.7363238414781764,
              45.668017993497145
            ],
            [
              0.7211348680620328,
              45.75739079934408
            ],
            [
              0.7058971624548369,
              45.846761586157236
            ],
            [
              0.6906104163595714,
              45.936130341117476
            ],
            [
              0.6752743190340085,
              46.02549705130341
            ],
            [
              0.6598885572659776,
              46.11486170369046
            ],
            [
              0.6444528153480233,
              46.20422428514977
            ],
            [
              0.6289667750526732,
              46.29358478244714
            ],
            [
              0.6134301156062805,
              46.382943182241895
            ],
            [
              0.5978425136634787,
              46.47229947108589
            ],
            [
              0.5822036432805152,
              46.561653635422346
            ],
            [
              0.5682591194305677,
              46.64107776469409
            ],
            [
              0.5525225100532536,
              46.730427878694634
            ],
            [
              0.5367336757815113,
              46.81977582840319
            ],
            [
              0.5208922803121399,
              46.90912159982984
            ],
            [
              0.5049979846106306,
              46.998465178870404
            ],
            [
              0.4890504468831784,
              47.087806551305334
            ],
            [
              0.47304932254818377,
              47.1771457027985
            ],
            [
              0.45699426420694084,
              47.26648261889591
            ],
            [
              0.4408849216147325,
              47.35581728502451
            ],
            [
              0.4247209416512131,
              47.44514968649101
            ],
            [
              0.40850196829028235,
              47.53447980848051
            ],
            [
              0.3940386456606037,
              47.613882435651966
            ],
            [
              0.37771481409411045,
              47.70320821110635
            ],
            [
              0.36133494400858857,
              47.792531663590566
            ],
            [
              0.34489866778616446,
              47.881852777804696
            ],
            [
              0.3284056147509502,
              47.97117153832087
            ],
            [
              0.3118554111371872,
              48.06048792958187
            ],
            [
              0.29524768005637186,
              48.1498019358998
            ],
            [
              0.27858204146427973,
              48.23911354145469
            ],
            [
              0.26185811212748067,
              48.32842273029303
            ],
            [
              0.2450755055893448,
              48.4177294863264
            ],
            [
              0.22823383213604906,
              48.50703379333
            ],
            [
              0.21321355105607936,
              48.58641333035517
            ],
            [
              0.1962592317970738,
              48.675712966657315
            ],
            [
              0.17924470116376465,
              48.765010106278446
            ],
            [
              0.1621695564395088,
              48.85430473244934
            ],
            [
              0.1450333914755139,
              48.943596828256986
            ],
            [
              0.12783579665491066,
              49.03288637664311
            ],
            [
              0.11057635885377226,
              49.122173360402556
            ],
            [
              0.09325466140457585,
              49.21145776218171
            ],
            [
              0.07587028405671292,
              49.30073956447689
            ],
            [
              0.05842280293811907,
              49.39001874963261
            ],
            [
              0.040911790515682465,
              49.47929529984006
            ],
            [
              0.023336815554838068,
              49.56856919713534
            ],
            [
              0.023336815554838068,
              49.56856919713534
            ]
          ]
        ]
      }
    }
  ]
}