{
  "type": "FeatureCollection",
  "features": [
    {
      "type": "Feature",
      "properties": {
        "model": "ncep_hrrr_conus",
        "grid_shape": [
          1059,
          1799
        ]
      },
      "geometry": {
        "type": "Polygon",
        "coordinates": [
          [
            [
              -134.09611787225376,
              47.8384241357845
            ],
            [
              -133.28923530376096,
              48.062614503266666
            ],
            [
              -132.43943508948655,
              48.29173658912897
            ],
            [
              -131.58332784094642,
              48.51543259916466
            ],
            [
              -130.72099285852232,
              48.73365227188594
            ],
            [
              -129.89040140998407,
              48.937214314763146
            ],
            [
              -129.01613223469997,
              49.144577802630124
            ],
            [
              -128.13590233388032,
              49.34632217780761
            ],
            [
              -127.24981318619466,
              49.54240120388493
            ],
            [
              -126.39686577174986,
              49.72461217937799
            ],
            [
              -125.49962813476037,
              49.90947725030784
            ],
            [
              -124.59686465870232,
              50.08854670015371
            ],
            [
              -123.68869942244052,
              50.26177872434808
            ],
            [
              -122.81508467072128,
              50.42197920855269
            ],
            [
              -121.89673133616091,
              50.58367381054843
            ],
            [
              -120.9733762620532,
              50.73941440820671
            ],
            [
              -120.04516582641538,
              50.88916402503487
            ],
            [
              -119.15290906521193,
              51.02676393131685
            ],
            [
              -118.21564324479775,
              51.164690025702235
            ],
            [
              -117.27398662057917,
              51.29652339812625
            ],
            [
              -116.32810675088938,
              51.422232275702825
            ],
            [
              -115.41955943015199,
              51.53671664045096
            ],
            [
              -114.46592053253933,
              51.65035616496209
            ],
            [
              -113.50858290093528,
              51.75778535734169
            ],
            [
              -112.5477332876123,
              51.85897799157943
            ],
            [
              -111.62554974774942,
              51.94991236419726
            ],
            [
              -110.65838573296064,
              52.03883273720411
            ],
            [
              -109.68828704644628,
              52.12144757156144
            ],
            [
              -108.71545678899487,
              52.19773648694047
            ],
            [
              -107.74010164708446,
              52.26768062134809
            ],
            [
              -106.80498429532999,
              52.328630722743675
            ],
            [
              -105.82529946493976,
              52.38611246088483
            ],
            [
              -104.84371938618249,
              52.437202667789286
            ],
            [
              -103.86046243821598,
              52.48188862068288
            ],
            [
              -102.9185901604865,
              52.518628775755595
            ],
            [
              -101.93269240964544,
              52.55075390198685
            ],
            [
              -100.94577563765294,
              52.57644642993815
            ],
            [
              -99.95806551130681,
              52.595699933416164
            ],
            [
              -99.01276604207936,
              52.60808669403001
            ],
            [
              -98.02416027301403,
              52.614729654796854
            ],
            [
              -97.03543354573269,
              52.614924006835125
            ],
            [
              -96.0468140257002,
              52.608669701461245
            ],
            [
              -95.10148855356924,
              52.59665456287227
            ],
            [
              -94.1137378447148,
              52.57778933815041
            ],
            [
              -93.12676685023257,
              52.552484752936614
            ],
            [
              -92.14080131157571,
              52.5207471366741
            ],
            [
              -91.19885158549565,
              52.48437714945484
            ],
            [
              -90.21550059463755,
              52.44007758138371
            ],
            [
              -89.23381323467474,
              52.389373042819365
            ],
            [
              -88.2540080300961,
              52.33227616160662
            ],
            [
              -87.3187634356866,
              52.27169333801305
            ],
            [
              -86.3432627867788,
              52.202132200940795
            ],
            [
              -85.3702744551383,
              52.12622519484134
            ],
            [
              -84.4000053356818,
              52.04399108971658
            ],
            [
              -83.43265875202798,
              51.95545017480855
            ],
            [
              -82.51028944312945,
              51.864877489558765
            ],
            [
              -81.54923421274002,
              51.7640615667071
            ],
            [
              -80.59167956411952,
              51.657007551141795
            ],
            [
              -79.63781252206046,
              51.5437415819318
            ],
            [
              -78.72903682493346,
              51.42961293455381
            ],
            [
              -77.78290786758517,
              51.3042741928284
            ],
            [
              -76.8409918927666,
              51.1728090847566
            ],
            [
              -75.90345676833891,
              51.03524930119985
            ],
            [
              -75.01093339036127,
              50.89799787680634
            ],
            [
              -74.08243509874102,
              50.74861051661233
            ],
            [
              -73.15878316950021,
              50.59322998753824
            ],
            [
              -72.24012431387999,
              50.43189318955406
            ],
            [
              -71.36620952653048,
              50.27203276440726
            ],
            [
              -70.45772279203894,
              50.09915389781066
            ],
            [
              -69.55463015672392,
              49.920435123379605
            ],
            [
              -68.6570560433938,
              49.73591817506308
            ],
            [
              -67.80378025310198,
              49.5540377339687
            ],
            [
              -66.91734131009954,
              49.35830163751486
            ],
            [
              -66.0367553155134,
              49.156897439399955
            ],
            [
              -65.16212409083367,
              48.94987131155493
            ],
            [
              -64.33118107568056,
              48.74662926686159
            ],
            [
              -63.46847337500764,
              48.52874126206665
            ],
            [
              -62.61198845232945,
              48.305373921483834
            ],
            [
              -61.76180593959001,
              48.07657744835339
            ],
            [
              -60.91799999999999,
              47.84240299999998
            ],
            [
              -60.91799999999999,
              47.84240299999998
            ],
            [
              -61.13161164838248,
              47.49863907072857
            ],
            [
              -61.32785928497379,
              47.1788184170971
            ],
            [
              -61.536969156734756,
              46.83375524329994
            ],
            [
              -61.72909892575438,
              46.51276000463346
            ],
            [
              -61.919289542684815,
              46.19122189643699
            ],
            [
              -62.12197322819131,
              45.84435982984061
            ],
            [
              -62.308224037720976,
              45.52174114799946
            ],
            [
              -62.50672722411537,
              45.173749410122
            ],
            [
              -62.68915301108668,
              44.850113269413185
            ],
            [
              -62.869776828617084,
              44.5260096633945
            ],
            [
              -63.062308457631225,
              44.176468886037426
            ],
            [
              -63.23926973098749,
              43.85144076632174
            ],
            [
              -63.427914022432354,
              43.50093796694723
            ],
            [
              -63.60131755681152,
              43.17504766395323
            ],
            [
              -63.77304437672832,
              42.848764362443525
            ],
            [
              -63.95613220981375,
              42.49695927021592
            ],
            [
              -64.12444973587205,
              42.16990546963162
            ],
            [
              -64.30391807111366,
              41.817303729583635
            ],
            [
              -64.46892211749542,
              41.48954084085729
            ],
            [
              -64.6323639583358,
              41.16145832163563
            ],
            [
              -64.80665532040392,
              40.80779739417754
            ],
            [
              -64.96691947871791,
              40.47909600554464
            ],
            [
              -65.13783636052102,
              40.12480116070307
            ],
            [
              -65.29501054360776,
              39.79554125380775
            ],
            [
              -65.45072734074886,
              39.466033818136324
            ],
            [
              -65.61681462290521,
              39.11091869517089
            ],
            [
              -65.76956583260335,
              38.780941284393535
            ],
            [
              -65.92091801027985,
              38.45075871666884
            ],
            [
              -66.08236907799973,
              38.094963714700306
            ],
            [
              -66.23087378011611,
              37.76439861370434
            ],
            [
              -66.38929980561156,
              37.40822315170481
            ],
            [
              -66.53503339677074,
              37.07733388014413
            ],
            [
              -66.6794592188032,
              36.74630917764481
            ],
            [
              -66.83355147484333,
              36.38968487383514
            ],
            [
              -66.97531459995885,
              36.058421429755896
            ],
            [
              -67.12657742119012,
              35.70157075656497
            ],
            [
              -67.26574798977555,
              35.370125504697086
            ],
            [
              -67.40369461304022,
              35.038612840794606
            ],
            [
              -67.55090145582528,
              34.681538706526744
            ],
            [
              -67.68635516482202,
              34.34992744445768
            ],
            [
              -67.8309123525171,
              33.99277702844463
            ],
            [
              -67.96393765456287,
              33.66112253598825
            ],
            [
              -68.09581610257072,
              33.32946677957135
            ],
            [
              -68.23657279055031,
              32.9723120843483
            ],
            [
              -68.36611453059244,
              32.64069388895058
            ],
            [
              -68.50438701051772,
              32.28360863805196
            ],
            [
              -68.63165144586813,
              31.952081674561917
            ],
            [
              -68.75784001825855,
              31.62061756805095
            ],
            [
              -68.89254726054382,
              31.263740503113773
            ],
            [
              -69.0165430256425,
              30.932445813519895
            ],
            [
              -69.14891851259227,
              30.575779218089448
            ],
            [
              -69.27077624340261,
              30.244705796663027
            ],
            [
              -69.39162356840048,
              29.913757179422717
            ],
            [
              -69.5206507398709,
              29.55750403274986
            ],
            [
              -69.63943799088703,
              29.226852087430224
            ],
            [
              -69.75725148854357,
              28.896360837228137
            ],
            [
              -69.88305180889142,
              28.540640064509706
            ],
            [
              -69.99887957825435,
              28.210519152522195
            ],
            [
              -70.12256760072874,
              27.855223546567522
            ],
            [
              -70.23645788254942,
              27.525521688385812
            ],
            [
              -70.34943206111564,
              27.196038726737758
            ],
            [
              -70.47008428152891,
              26.841468346433587
            ],
            [
              -70.58118970318529,
              26.51247507749263
            ],
            [
              -70.69985362967927,
              26.15845727927828
            ],
            [
              -70.80913491913768,
              25.830000329332822
            ],
            [
              -70.91755343376437,
              25.501817981521516
            ],
            [
              -71.03335828495122,
              25.148709991185132
            ],
            [
              -71.14001628460343,
              24.821131443211595
            ],
            [
              -71.25394761955293,
              24.46869775459696
            ],
            [
              -71.35888643389629,
              24.14176746177073
            ],
            [
              -71.46301186380815,
              23.815164883302494
            ],
            [
              -71.57424779940972,
              23.46381699208171
            ],
            [
              -71.67671299884246,
              23.137926880478616
            ],
            [
              -71.78618178344955,
              22.787369114612776
            ],
            [
              -71.88702507577638,
              22.46223368607323
            ],
            [
              -71.98710078117401,
              22.13747640935009
            ],
            [
              -72.0940259353948,
              21.788171568015642
            ],
            [
              -72.19253443206522,
              21.464229826308927
            ],
            [
              -72.29030110036709,
              21.14069504581226
            ],
            [
              -72.29030110036709,
              21.14069504581226
            ],
            [
              -72.90476151288176,
              21.299569707518216
            ],
            [
              -73.52147626863528,
              21.454728071760243
            ],
            [
              -74.14040211759026,
              21.60613973977523
            ],
            [
              -74.76149469926057,
              21.753774958031677
            ],
            [
              -75.35756881613004,
              21.891430686807674
            ],
            [
              -75.98276816900342,
              22.031593663888735
            ],
            [
              -76.60999671057719,
              22.167896116649676
            ],
            [
              -77.23920579799116,
              22.300310963626256
            ],
            [
              -77.8428654074284,
              22.42330657129936
            ],
            [
              -78.47580480579407,
              22.548039603405538
            ],
            [
              -79.11057487018066,
              22.6688091245057
            ],
            [
              -79.74712291175706,
              22.785590904089855
            ],
            [
              -80.35760917607023,
              22.893542111122052
            ],
            [
              -80.99747977679621,
              23.002454565412044
            ],
            [
              -81.63896695451622,
              23.107312047042626
            ],
            [
              -82.28201428948212,
              23.20809333862714
            ],
            [
              -82.89851009229149,
              23.30065978069166
            ],
            [
              -83.54444338114654,
              23.393407554542808
            ],
            [
              -84.19176495238764,
              23.482021033925363
            ],
            [
              -84.84041504697137,
              23.56648215824924
            ],
            [
              -85.46205028632691,
              23.64336967719805
            ],
            [
              -86.11312390589407,
              23.71965752092391
            ],
            [
              -86.76534496508849,
              23.79174442738904
            ],
            [
              -87.41865082893477,
              23.859615616348453
            ],
            [
              -88.04450882274857,
              23.920578261919413
            ],
            [
              -88.69975354320155,
              23.980161792860564
            ],
            [
              -89.35589424328924,
              24.03549088011706
            ],
            [
              -90.01286593963721,
              24.08655412576827
            ],
            [
              -90.67060314551634,
              24.133341000225492
            ],
            [
              -91.30039857563912,
              24.174083229637496
            ],
            [
              -91.95944237367283,
              24.212476170665767
            ],
            [
              -92.61905549442498,
              24.246566731672434
            ],
            [
              -93.27917083840742,
              24.276347860862746
            ],
            [
              -93.91099330055619,
              24.300796010066488
            ],
            [
              -94.57189604596422,
              24.322128635508584
            ],
            [
              -95.23310098345675,
              24.339136182857004
            ],
            [
              -95.8945400322153,
              24.351815127403377
            ],
            [
              -96.5273770115017,
              24.359889986787884
            ],
            [
              -97.18907668295778,
              24.364093151652575
            ],
            [
              -97.85080849651476,
              24.36396253952346
            ],
            [
              -98.51250404497704,
              24.35949817748584
            ],
            [
              -99.14533322486237,
              24.351173552615226
            ],
            [
              -99.80676009364869,
              24.33823362049562
            ],
            [
              -100.46794874310984,
              24.320965272652327
            ],
            [
              -101.12883110250465,
              24.299372087774415
            ],
            [
              -101.760630241983,
              24.274674983052407
            ],
            [
              -102.42071722089474,
              24.244633921755007
            ],
            [
              -103.08029792303775,
              24.210283828571725
            ],
            [
              -103.73930526883568,
              24.171631808710245
            ],
            [
              -104.36906207779491,
              24.130642238039208
            ],
            [
              -105.02675500634687,
              24.083597325414562
            ],
            [
              -105.68367846462738,
              24.03227665158166
            ],
            [
              -106.33976699517878,
              23.976690798603947
            ],
            [
              -106.99495564616295,
              23.91685121658228
            ],
            [
              -107.62075639014067,
              23.855644369125272
            ],
            [
              -108.27399865383975,
              23.78751867698313
            ],
            [
              -108.9261523189693,
              23.715178134307106
            ],
            [
              -109.57715479056068,
              23.63863757213703
            ],
            [
              -110.19871850141264,
              23.561509227754748
            ],
            [
              -110.84729022670798,
              23.47679732596609
            ],
            [
              -111.49452980451409,
              23.387934134614667
            ],
            [
              -112.14037752335723,
              23.294937763361602
            ],
            [
              -112.75678817535238,
              23.202134620216825
            ],
            [
              -113.39974308685532,
              23.10110705195506
            ],
            [
              -114.04113441515344,
              22.996004550370262
            ],
            [
              -114.68090579458828,
              22.88684837987832
            ],
            [
              -115.2912940476494,
              22.778665315812944
            ],
            [
              -115.92773643278208,
              22.66164250470037
            ],
            [
              -116.56239763709135,
              22.540633391500855
            ],
            [
              -117.19522503121836,
              22.415662251417647
            ],
            [
              -117.79877462000151,
              22.292440317659075
            ],
            [
              -118.4278657279711,
              22.159790393253214
            ],
            [
              -119.05497332834008,
              22.02325447555017
            ],
            [
              -119.68004884191382,
              21.882859688102897
            ],
            [
              -120.27600185147692,
              21.744983814081678
            ],
            [
              -120.89696511104474,
              21.59712014172986
            ],
            [
              -121.5157589328233,
              21.445481794496015
            ],
            [
              -122.13233902298485,
              21.290098565155553
            ],
            [
              -122.72,
              21.137994999999993
            ],
            [
              -122.72,
              21.137994999999993
            ],
            [
              -122.81780251326023,
              21.46151531268276
            ],
            [
              -122.91634707965882,
              21.78544254550786
            ],
            [
              -123.02331133160924,
              22.13473171639385
            ],
            [
              -123.12342357925256,
              22.45947440013871
            ],
            [
              -123.22430364409679,
              22.78459519579207
            ],
            [
              -123.33381228947772,
              23.13513715897362
            ],
            [
              -123.43631474548694,
              23.461012556031374
            ],
            [
              -123.54759106740669,
              23.812344557526007
            ],
            [
              -123.65175424587154,
              24.13893234146435
            ],
            [
              -123.75673104849848,
              24.46584780185293
            ],
            [
              -123.87070356415252,
              24.818265475132396
            ],
            [
              -123.97740005597488,
              25.145829113201014
            ],
            [
              -124.09324663489281,
              25.498921005699884
            ],
            [
              -124.20170415373217,
              25.827088367858384
            ],
            [
              -124.31102469687758,
              26.15553029629695
            ],
            [
              -124.42973117777449,
              26.509531877868493
            ],
            [
              -124.54087637740565,
              26.838510052124096
            ],
            [
              -124.66157172133475,
              27.193064137916526
            ],
            [
              -124.77458621053124,
              27.522531933445322
            ],
            [
              -124.88851706245279,
              27.852218591737252
            ],
            [
              -125.01224906823661,
              28.20749779127804
            ],
            [
              -125.128117952889,
              28.537603434532997
            ],
            [
              -125.25396284826374,
              28.893307727640998
            ],
            [
              -125.37181801494006,
              29.22378364201609
            ],
            [
              -125.49064720465032,
              29.55442021982619
            ],
            [
              -125.61971984474968,
              29.910656781904123
            ],
            [
              -125.7406096749276,
              30.241589967120344
            ],
            [
              -125.86251018675851,
              30.572647926077618
            ],
            [
              -125.99493205636959,
              30.929297836028216
            ],
            [
              -126.1189711818231,
              31.260577001194978
            ],
            [
              -126.25372543535377,
              31.61743731484943
            ],
            [
              -126.37995795613999,
              31.948885836681363
            ],
            [
              -126.50726662612654,
              32.2803971870847
            ],
            [
              -126.64558706578636,
              32.63746559256566
            ],
            [
              -126.77517364142354,
              32.96906811711325
            ],
            [
              -126.91597894101702,
              33.326205905602684
            ],
            [
              -127.04790283428986,
              33.65784593505338
            ],
            [
              -127.18097387824517,
              33.98948467410329
            ],
            [
              -127.32558066051321,
              34.34661809576562
            ],
            [
              -127.46108073394124,
              34.678213550694814
            ],
            [
              -127.6083378463527,
              35.03527063359202
            ],
            [
              -127.74633146518153,
              35.36676743818418
            ],
            [
              -127.8855493362595,
              35.69819680616808
            ],
            [
              -128.0368634441455,
              36.05503034655478
            ],
            [
              -128.17867451549637,
              36.386277856817834
            ],
            [
              -128.33281875598016,
              36.74288497483877
            ],
            [
              -128.47729317636777,
              37.073893695041995
            ],
            [
              -128.62307568281295,
              37.40476696146728
            ],
            [
              -128.78155474291546,
              37.760925161990116
            ],
            [
              -128.93010902458028,
              38.09147421142556
            ],
            [
              -129.09161384658574,
              38.44725190263755
            ],
            [
              -129.24301627604368,
              38.77741837369217
            ],
            [
              -129.39581806396947,
              39.10737966653088
            ],
            [
              -129.56196018209346,
              39.4624774082555
            ],
            [
              -129.71772824108297,
              39.7919686827115
            ],
            [
              -129.87495401780765,
              40.12121240797006
            ],
            [
              -130.04592683495767,
              40.47548980389263
            ],
            [
              -130.2062432812991,
              40.804174969294216
            ],
            [
              -130.38059133025348,
              41.15781840361146
            ],
            [
              -130.5440861603553,
              41.4858846590511
            ],
            [
              -130.70914353595464,
              41.813631264820366
            ],
            [
              -130.88866968450546,
              42.16621544817796
            ],
            [
              -131.05704125040154,
              42.493252926655714
            ],
            [
              -131.24018766524114,
              42.845040420497
            ],
            [
              -131.41196924135957,
              43.17130736159316
            ],
            [
              -131.5854278787446,
              43.49718128600422
            ],
            [
              -131.77413190103718,
              43.84766642677428
            ],
            [
              -131.9511490012371,
              44.1726781306862
            ],
            [
              -132.14374114299338,
              44.52220120970069
            ],
            [
              -132.32442151544672,
              44.84628836331391
            ],
            [
              -132.506904209195,
              45.169908034186896
            ],
            [
              -132.70546907413146,
              45.517882015951514
            ],
            [
              -132.89177752341269,
              45.84048419209576
            ],
            [
              -133.09452367814535,
              46.18732846417598
            ],
            [
              -133.2847726700375,
              46.50885003119118
            ],
            [
              -133.47696116852174,
              46.82982871169559
            ],
            [
              -133.68613468405198,
              47.174874034694916
            ],
            [
              -133.8824417867984,
              47.49467809504917
            ],
            [
              -134.09611787225376,
              47.8384241357845
            ],
            [
              -134.09611787225376,
              47.8384241357845
            ]
          ]
        ]
      }
    }
  ]
}